CCSDS_OMM_VERS = 2.0
CREATION_DATE  = 
ORIGINATOR     = 

OBJECT_NAME    = STARLINK-36571
OBJECT_ID      = 2026-016U
CENTER_NAME    = EARTH
REF_FRAME      = TEME
TIME_SYSTEM    = UTC
MEAN_ELEMENT_THEORY = SGP/SGP4

EPOCH          = 2026-01-30T18:00:02.000160
MEAN_MOTION    = 16.04497134
ECCENTRICITY   = .00012244
INCLINATION    = 97.2818
RA_OF_ASC_NODE = 89.1035
ARG_OF_PERICENTER = 72.3112
MEAN_ANOMALY   = 293.0837

EPHEMERIS_TYPE = 0
CLASSIFICATION_TYPE = U
NORAD_CAT_ID   = 67579
ELEMENT_SET_NO = 999
REV_AT_EPOCH   = 195
BSTAR          = -.22259655E-2
MEAN_MOTION_DOT = -.1455153E-1
MEAN_MOTION_DDOT = .69154094E-3

CCSDS_OMM_VERS = 2.0
CREATION_DATE  = 
ORIGINATOR     = 

OBJECT_NAME    = STARLINK-36612
OBJECT_ID      = 2026-016V
CENTER_NAME    = EARTH
REF_FRAME      = TEME
TIME_SYSTEM    = UTC
MEAN_ELEMENT_THEORY = SGP/SGP4

EPOCH          = 2026-01-30T18:00:02.000160
MEAN_MOTION    = 16.04652611
ECCENTRICITY   = .00011552
INCLINATION    = 97.2817
RA_OF_ASC_NODE = 89.1038
ARG_OF_PERICENTER = 69.1104
MEAN_ANOMALY   = 297.6412

EPHEMERIS_TYPE = 0
CLASSIFICATION_TYPE = U
NORAD_CAT_ID   = 67580
ELEMENT_SET_NO = 999
REV_AT_EPOCH   = 195
BSTAR          = -.22289539E-2
MEAN_MOTION_DOT = -.1470554E-1
MEAN_MOTION_DDOT = .70653947E-3

CCSDS_OMM_VERS = 2.0
CREATION_DATE  = 
ORIGINATOR     = 

OBJECT_NAME    = STARLINK-36632
OBJECT_ID      = 2026-016W
CENTER_NAME    = EARTH
REF_FRAME      = TEME
TIME_SYSTEM    = UTC
MEAN_ELEMENT_THEORY = SGP/SGP4

EPOCH          = 2026-01-30T18:00:02.000160
MEAN_MOTION    = 16.05048273
ECCENTRICITY   = .00013477
INCLINATION    = 97.2819
RA_OF_ASC_NODE = 89.1057
ARG_OF_PERICENTER = 62.3345
MEAN_ANOMALY   = 307.9683

EPHEMERIS_TYPE = 0
CLASSIFICATION_TYPE = U
NORAD_CAT_ID   = 67581
ELEMENT_SET_NO = 999
REV_AT_EPOCH   = 195
BSTAR          = -.21214233E-2
MEAN_MOTION_DOT = -.1433817E-1
MEAN_MOTION_DDOT = .67732414E-3

CCSDS_OMM_VERS = 2.0
CREATION_DATE  = 
ORIGINATOR     = 

OBJECT_NAME    = STARLINK-36609
OBJECT_ID      = 2026-016X
CENTER_NAME    = EARTH
REF_FRAME      = TEME
TIME_SYSTEM    = UTC
MEAN_ELEMENT_THEORY = SGP/SGP4

EPOCH          = 2026-01-30T18:00:02.000160
MEAN_MOTION    = 16.05182479
ECCENTRICITY   = .00012305
INCLINATION    = 97.2817
RA_OF_ASC_NODE = 89.1060
ARG_OF_PERICENTER = 68.2438
MEAN_ANOMALY   = 303.3749

EPHEMERIS_TYPE = 0
CLASSIFICATION_TYPE = U
NORAD_CAT_ID   = 67582
ELEMENT_SET_NO = 999
REV_AT_EPOCH   = 195
BSTAR          = -.20998075E-2
MEAN_MOTION_DOT = -.1430766E-1
MEAN_MOTION_DDOT = .67574965E-3

CCSDS_OMM_VERS = 2.0
CREATION_DATE  = 
ORIGINATOR     = 

OBJECT_NAME    = STARLINK-36577
OBJECT_ID      = 2026-016Y
CENTER_NAME    = EARTH
REF_FRAME      = TEME
TIME_SYSTEM    = UTC
MEAN_ELEMENT_THEORY = SGP/SGP4

EPOCH          = 2026-01-30T18:00:02.000160
MEAN_MOTION    = 16.04826105
ECCENTRICITY   = .00012386
INCLINATION    = 97.2815
RA_OF_ASC_NODE = 89.1045
ARG_OF_PERICENTER = 70.3680
MEAN_ANOMALY   = 298.0807

EPHEMERIS_TYPE = 0
CLASSIFICATION_TYPE = U
NORAD_CAT_ID   = 67583
ELEMENT_SET_NO = 999
REV_AT_EPOCH   = 195
BSTAR          = -.21567849E-2
MEAN_MOTION_DOT = -.1438252E-1
MEAN_MOTION_DDOT = .67938523E-3

CCSDS_OMM_VERS = 2.0
CREATION_DATE  = 
ORIGINATOR     = 

OBJECT_NAME    = STARLINK-36419
OBJECT_ID      = 2026-016Z
CENTER_NAME    = EARTH
REF_FRAME      = TEME
TIME_SYSTEM    = UTC
MEAN_ELEMENT_THEORY = SGP/SGP4

EPOCH          = 2026-01-30T18:00:02.000160
MEAN_MOTION    = 16.05324615
ECCENTRICITY   = .0001191
INCLINATION    = 97.2818
RA_OF_ASC_NODE = 89.1066
ARG_OF_PERICENTER = 67.3294
MEAN_ANOMALY   = 305.7128

EPHEMERIS_TYPE = 0
CLASSIFICATION_TYPE = U
NORAD_CAT_ID   = 67584
ELEMENT_SET_NO = 999
REV_AT_EPOCH   = 195
BSTAR          = -.20566602E-2
MEAN_MOTION_DOT = -.1413665E-1
MEAN_MOTION_DDOT = .6619685E-3

CCSDS_OMM_VERS = 2.0
CREATION_DATE  = 
ORIGINATOR     = 

OBJECT_NAME    = STARLINK-36560
OBJECT_ID      = 2026-016AA
CENTER_NAME    = EARTH
REF_FRAME      = TEME
TIME_SYSTEM    = UTC
MEAN_ELEMENT_THEORY = SGP/SGP4

EPOCH          = 2026-01-30T18:00:02.000160
MEAN_MOTION    = 16.05533266
ECCENTRICITY   = .00011677
INCLINATION    = 97.2817
RA_OF_ASC_NODE = 89.1075
ARG_OF_PERICENTER = 73.9835
MEAN_ANOMALY   = 300.8972

EPHEMERIS_TYPE = 0
CLASSIFICATION_TYPE = U
NORAD_CAT_ID   = 67585
ELEMENT_SET_NO = 999
REV_AT_EPOCH   = 189
BSTAR          = -.20096759E-2
MEAN_MOTION_DOT = -.139913E-1
MEAN_MOTION_DDOT = .65104164E-3

CCSDS_OMM_VERS = 2.0
CREATION_DATE  = 
ORIGINATOR     = 

OBJECT_NAME    = CZ-2C DEB
OBJECT_ID      = 2026-009C
CENTER_NAME    = EARTH
REF_FRAME      = TEME
TIME_SYSTEM    = UTC
MEAN_ELEMENT_THEORY = SGP/SGP4

EPOCH          = 2026-02-01T15:24:31.106880
MEAN_MOTION    = 15.11168577
ECCENTRICITY   = .0112683
INCLINATION    = 97.2281
RA_OF_ASC_NODE = 106.5031
ARG_OF_PERICENTER = 161.6550
MEAN_ANOMALY   = 198.8797

EPHEMERIS_TYPE = 0
CLASSIFICATION_TYPE = U
NORAD_CAT_ID   = 67586
ELEMENT_SET_NO = 999
REV_AT_EPOCH   = 263
BSTAR          = .27938E-2
MEAN_MOTION_DOT = .54893E-3
MEAN_MOTION_DDOT = 0

CCSDS_OMM_VERS = 2.0
CREATION_DATE  = 
ORIGINATOR     = 

OBJECT_NAME    = CZ-2C DEB
OBJECT_ID      = 2026-009D
CENTER_NAME    = EARTH
REF_FRAME      = TEME
TIME_SYSTEM    = UTC
MEAN_ELEMENT_THEORY = SGP/SGP4

EPOCH          = 2026-02-01T13:18:27.687168
MEAN_MOTION    = 15.12800586
ECCENTRICITY   = .0109113
INCLINATION    = 97.6748
RA_OF_ASC_NODE = 107.3528
ARG_OF_PERICENTER = 167.3427
MEAN_ANOMALY   = 193.0584

EPHEMERIS_TYPE = 0
CLASSIFICATION_TYPE = U
NORAD_CAT_ID   = 67587
ELEMENT_SET_NO = 999
REV_AT_EPOCH   = 262
BSTAR          = .19392E-2
MEAN_MOTION_DOT = .39505E-3
MEAN_MOTION_DDOT = 0

CCSDS_OMM_VERS = 2.0
CREATION_DATE  = 
ORIGINATOR     = 

OBJECT_NAME    = NAVSTAR 85 (USA 581)
OBJECT_ID      = 2026-017A
CENTER_NAME    = EARTH
REF_FRAME      = TEME
TIME_SYSTEM    = UTC
MEAN_ELEMENT_THEORY = SGP/SGP4

EPOCH          = 2026-01-28T18:17:22.544736
MEAN_MOTION    = 4.03376750
ECCENTRICITY   = .59408377
INCLINATION    = 55.0007
RA_OF_ASC_NODE = 99.1396
ARG_OF_PERICENTER = 270.1415
MEAN_ANOMALY   = 26.1406

EPHEMERIS_TYPE = 0
CLASSIFICATION_TYPE = U
NORAD_CAT_ID   = 67588
ELEMENT_SET_NO = 999
REV_AT_EPOCH   = 4
BSTAR          = .32093292E-3
MEAN_MOTION_DOT = .346E-5
MEAN_MOTION_DDOT = 0

CCSDS_OMM_VERS = 2.0
CREATION_DATE  = 
ORIGINATOR     = 

OBJECT_NAME    = NEONSAT-1A
OBJECT_ID      = 2026-019A
CENTER_NAME    = EARTH
REF_FRAME      = TEME
TIME_SYSTEM    = UTC
MEAN_ELEMENT_THEORY = SGP/SGP4

EPOCH          = 2026-02-01T11:23:38.278176
MEAN_MOTION    = 15.07507298
ECCENTRICITY   = .0011955
INCLINATION    = 97.4096
RA_OF_ASC_NODE = 157.3610
ARG_OF_PERICENTER = 301.6968
MEAN_ANOMALY   = 58.3095

EPHEMERIS_TYPE = 0
CLASSIFICATION_TYPE = U
NORAD_CAT_ID   = 67614
ELEMENT_SET_NO = 999
REV_AT_EPOCH   = 36
BSTAR          = .31302E-3
MEAN_MOTION_DOT = .4699E-4
MEAN_MOTION_DDOT = 0

CCSDS_OMM_VERS = 2.0
CREATION_DATE  = 
ORIGINATOR     = 

OBJECT_NAME    = ELECTRON R/B
OBJECT_ID      = 2026-019B
CENTER_NAME    = EARTH
REF_FRAME      = TEME
TIME_SYSTEM    = UTC
MEAN_ELEMENT_THEORY = SGP/SGP4

EPOCH          = 2026-01-31T17:53:30.098400
MEAN_MOTION    = 15.69235212
ECCENTRICITY   = .0259152
INCLINATION    = 97.4470
RA_OF_ASC_NODE = 156.8497
ARG_OF_PERICENTER = 220.4311
MEAN_ANOMALY   = 137.7440

EPHEMERIS_TYPE = 0
CLASSIFICATION_TYPE = U
NORAD_CAT_ID   = 67615
ELEMENT_SET_NO = 999
REV_AT_EPOCH   = 26
BSTAR          = .25520631E-3
MEAN_MOTION_DOT = .250226E-2
MEAN_MOTION_DDOT = .2283743E-5

